start=new Date('2022-04-21T00:00:00.000Z').valueOf();
sats=[{"REV_AT_EPOCH":"6258","ARG_OF_PERICENTER":"48.6197","MEAN_ANOMALY":"311.4945","RA_OF_ASC_NODE":"151.2189","INCLINATION":"53.0525","SITE":"AFETR","MEAN_MOTION_DOT":"-0.00001445","RCS_SIZE":"LARGE","OBJECT_ID":"2021-021K","SEMIMAJOR_AXIS":"6925.345","GP_ID":"201714254","ECCENTRICITY":"0.00017860","BSTAR":"-0.00007813600000","EPHEMERIS_TYPE":"0","NORAD_CAT_ID":"47869","FILE":"3409979","PERIOD":"95.592","LAUNCH_DATE":"2021-03-14","CENTER_NAME":"EARTH","OBJECT_TYPE":"PAYLOAD","MEAN_MOTION":"15.06401061","DECAY_DATE":null,"APOAPSIS":"548.447","REF_FRAME":"TEME","TLE_LINE1":"1 47869U 21021K   22110.81229952 -.00001445  00000-0 -78136-4 0  9999","TIME_SYSTEM":"UTC","EPOCH":"2022-04-20T19:29:42.678528","ELEMENT_SET_NO":"999","MEAN_MOTION_DDOT":"0.0000000000000","MEAN_ELEMENT_THEORY":"SGP4","OBJECT_NAME":"STARLINK-2324","TLE_LINE2":"2 47869  53.0525 151.2189 0001786  48.6197 311.4945 15.06401061 62582","PERIAPSIS":"545.973","COUNTRY_CODE":"US","CLASSIFICATION_TYPE":"U"},{"ECCENTRICITY":"0.00016300","BSTAR":"0.00016259000000","EPHEMERIS_TYPE":"0","NORAD_CAT_ID":"47870","PERIOD":"95.592","FILE":"3409979","REV_AT_EPOCH":"6200","ARG_OF_PERICENTER":"52.8732","MEAN_ANOMALY":"307.2406","RA_OF_ASC_NODE":"176.7113","INCLINATION":"53.0519","SITE":"AFETR","RCS_SIZE":"LARGE","MEAN_MOTION_DOT":"0.00002141","SEMIMAJOR_AXIS":"6925.346","OBJECT_ID":"2021-021L","GP_ID":"201713002","EPOCH":"2022-04-20T16:44:29.361984","TIME_SYSTEM":"UTC","ELEMENT_SET_NO":"999","MEAN_MOTION_DDOT":"0.0000000000000","MEAN_ELEMENT_THEORY":"SGP4","TLE_LINE2":"2 47870  53.0519 176.7113 0001630  52.8732 307.2406 15.06400879 62004","OBJECT_NAME":"STARLINK-2326","PERIAPSIS":"546.082","COUNTRY_CODE":"US","CLASSIFICATION_TYPE":"U","LAUNCH_DATE":"2021-03-14","CENTER_NAME":"EARTH","OBJECT_TYPE":"PAYLOAD","MEAN_MOTION":"15.06400879","DECAY_DATE":null,"APOAPSIS":"548.340","REF_FRAME":"TEME","TLE_LINE1":"1 47870U 21021L   22110.69756206  .00002141  00000-0  16259-3 0  9993"},{"MEAN_ANOMALY":"312.7064","RA_OF_ASC_NODE":"151.2345","INCLINATION":"53.0539","REV_AT_EPOCH":"6247","ARG_OF_PERICENTER":"47.4077","GP_ID":"201713753","SEMIMAJOR_AXIS":"6925.351","OBJECT_ID":"2021-021M","MEAN_MOTION_DOT":"0.00000109","SITE":"AFETR","RCS_SIZE":"LARGE","BSTAR":"0.00002619500000","ECCENTRICITY":"0.00018120","PERIOD":"95.592","FILE":"3409979","NORAD_CAT_ID":"47871","EPHEMERIS_TYPE":"0","MEAN_MOTION":"15.06399071","OBJECT_TYPE":"PAYLOAD","LAUNCH_DATE":"2021-03-14","CENTER_NAME":"EARTH","TLE_LINE1":"1 47871U 21021M   22110.80861314  .00000109  00000-0  26195-4 0  9997","DECAY_DATE":null,"REF_FRAME":"TEME","APOAPSIS":"548.471","MEAN_MOTION_DDOT":"0.0000000000000","TIME_SYSTEM":"UTC","EPOCH":"2022-04-20T19:24:24.175296","ELEMENT_SET_NO":"999","PERIAPSIS":"545.962","COUNTRY_CODE":"US","CLASSIFICATION_TYPE":"U","OBJECT_NAME":"STARLINK-2327","TLE_LINE2":"2 47871  53.0539 151.2345 0001812  47.4077 312.7064 15.06399071 62479","MEAN_ELEMENT_THEORY":"SGP4"},{"MEAN_ANOMALY":"86.5510","RA_OF_ASC_NODE":"100.6527","INCLINATION":"53.0565","REV_AT_EPOCH":"6318","ARG_OF_PERICENTER":"273.4607","GP_ID":"201714004","MEAN_MOTION_DOT":"0.00214101","SITE":"AFETR","RCS_SIZE":"LARGE","OBJECT_ID":"2021-021N","SEMIMAJOR_AXIS":"6834.477","BSTAR":"0.00575730000000","ECCENTRICITY":"0.00077380","NORAD_CAT_ID":"47872","PERIOD":"93.717","FILE":"3409979","EPHEMERIS_TYPE":"0","MEAN_MOTION":"15.36543571","LAUNCH_DATE":"2021-03-14","CENTER_NAME":"EARTH","OBJECT_TYPE":"PAYLOAD","TLE_LINE1":"1 47872U 21021N   22110.67219783  .00214101  00000-0  57573-2 0  9991","DECAY_DATE":null,"REF_FRAME":"TEME","APOAPSIS":"461.630","MEAN_MOTION_DDOT":"0.0000000000000","TIME_SYSTEM":"UTC","EPOCH":"2022-04-20T16:07:57.892512","ELEMENT_SET_NO":"999","TLE_LINE2":"2 47872  53.0565 100.6527 0007738 273.4607  86.5510 15.36543571 63182","OBJECT_NAME":"STARLINK-2328","COUNTRY_CODE":"US","PERIAPSIS":"451.053","CLASSIFICATION_TYPE":"U","MEAN_ELEMENT_THEORY":"SGP4"},{"ELEMENT_SET_NO":"999","TIME_SYSTEM":"UTC","EPOCH":"2022-04-20T12:35:41.774784","MEAN_MOTION_DDOT":"0.0000000000000","MEAN_ELEMENT_THEORY":"SGP4","OBJECT_NAME":"STARLINK-2329","TLE_LINE2":"2 47873  53.0565 152.5049 0001810  46.1911 313.9228 15.06402394 62429","CLASSIFICATION_TYPE":"U","COUNTRY_CODE":"US","PERIAPSIS":"545.953","CENTER_NAME":"EARTH","LAUNCH_DATE":"2021-03-14","OBJECT_TYPE":"PAYLOAD","MEAN_MOTION":"15.06402394","REF_FRAME":"TEME","APOAPSIS":"548.460","DECAY_DATE":null,"TLE_LINE1":"1 47873U 21021P   22110.52478906 -.00000136  00000-0  98001-5 0  9996","ECCENTRICITY":"0.00018100","BSTAR":"0.00000980010000","EPHEMERIS_TYPE":"0","NORAD_CAT_ID":"47873","PERIOD":"95.592","FILE":"3409639","ARG_OF_PERICENTER":"46.1911","REV_AT_EPOCH":"6242","INCLINATION":"53.0565","MEAN_ANOMALY":"313.9228","RA_OF_ASC_NODE":"152.5049","MEAN_MOTION_DOT":"-0.00000136","SITE":"AFETR","RCS_SIZE":"LARGE","OBJECT_ID":"2021-021P","SEMIMAJOR_AXIS":"6925.341","GP_ID":"201681862"},{"GP_ID":"201682112","MEAN_MOTION_DOT":"0.00001148","SITE":"AFETR","RCS_SIZE":"LARGE","OBJECT_ID":"2021-021Q","SEMIMAJOR_AXIS":"6925.369","MEAN_ANOMALY":"309.4139","RA_OF_ASC_NODE":"108.0428","INCLINATION":"53.0554","REV_AT_EPOCH":"6304","ARG_OF_PERICENTER":"50.7027","NORAD_CAT_ID":"47874","PERIOD":"95.593","FILE":"3409639","EPHEMERIS_TYPE":"0","BSTAR":"0.00009595800000","ECCENTRICITY":"0.00019970","TLE_LINE1":"1 47874U 21021Q   22110.40082904  .00001148  00000-0  95958-4 0  9993","DECAY_DATE":null,"REF_FRAME":"TEME","APOAPSIS":"548.617","MEAN_MOTION":"15.06393233","LAUNCH_DATE":"2021-03-14","CENTER_NAME":"EARTH","OBJECT_TYPE":"PAYLOAD","TLE_LINE2":"2 47874  53.0554 108.0428 0001997  50.7027 309.4139 15.06393233 63041","OBJECT_NAME":"STARLINK-2330","COUNTRY_CODE":"US","CLASSIFICATION_TYPE":"U","PERIAPSIS":"545.851","MEAN_ELEMENT_THEORY":"SGP4","MEAN_MOTION_DDOT":"0.0000000000000","EPOCH":"2022-04-20T09:37:11.629056","TIME_SYSTEM":"UTC","ELEMENT_SET_NO":"999"},{"SITE":"AFETR","RCS_SIZE":"LARGE","MEAN_MOTION_DOT":"0.00000032","OBJECT_ID":"2021-021R","SEMIMAJOR_AXIS":"6925.346","GP_ID":"201713253","ARG_OF_PERICENTER":"76.8455","REV_AT_EPOCH":"6239","INCLINATION":"53.0531","MEAN_ANOMALY":"283.2683","RA_OF_ASC_NODE":"161.0541","EPHEMERIS_TYPE":"0","NORAD_CAT_ID":"47875","PERIOD":"95.592","FILE":"3409979","ECCENTRICITY":"0.00013310","BSTAR":"0.00002102600000","REF_FRAME":"TEME","APOAPSIS":"548.133","DECAY_DATE":null,"TLE_LINE1":"1 47875U 21021R   22110.84824067  .00000032  00000-0  21026-4 0  9992","CENTER_NAME":"EARTH","LAUNCH_DATE":"2021-03-14","OBJECT_TYPE":"PAYLOAD","MEAN_MOTION":"15.06400776","MEAN_ELEMENT_THEORY":"SGP4","TLE_LINE2":"2 47875  53.0531 161.0541 0001331  76.8455 283.2683 15.06400776 62399","OBJECT_NAME":"STARLINK-2331","COUNTRY_CODE":"US","PERIAPSIS":"546.289","CLASSIFICATION_TYPE":"U","ELEMENT_SET_NO":"999","TIME_SYSTEM":"UTC","EPOCH":"2022-04-20T20:21:27.993888","MEAN_MOTION_DDOT":"0.0000000000000"},{"INCLINATION":"53.0525","MEAN_ANOMALY":"319.5428","RA_OF_ASC_NODE":"161.1058","ARG_OF_PERICENTER":"40.5724","REV_AT_EPOCH":"6234","GP_ID":"201714505","SEMIMAJOR_AXIS":"6925.345","OBJECT_ID":"2021-021S","SITE":"AFETR","MEAN_MOTION_DOT":"0.00002419","RCS_SIZE":"LARGE","BSTAR":"0.00018126000000","ECCENTRICITY":"0.00021950","FILE":"3409979","PERIOD":"95.592","NORAD_CAT_ID":"47876","EPHEMERIS_TYPE":"0","MEAN_MOTION":"15.06401029","OBJECT_TYPE":"PAYLOAD","CENTER_NAME":"EARTH","LAUNCH_DATE":"2021-03-14","TLE_LINE1":"1 47876U 21021S   22110.83717354  .00002419  00000-0  18126-3 0  9999","REF_FRAME":"TEME","APOAPSIS":"548.731","DECAY_DATE":null,"MEAN_MOTION_DDOT":"0.0000000000000","ELEMENT_SET_NO":"999","EPOCH":"2022-04-20T20:05:31.793856","TIME_SYSTEM":"UTC","COUNTRY_CODE":"US","CLASSIFICATION_TYPE":"U","PERIAPSIS":"545.690","OBJECT_NAME":"STARLINK-2332","TLE_LINE2":"2 47876  53.0525 161.1058 0002195  40.5724 319.5428 15.06401029 62340","MEAN_ELEMENT_THEORY":"SGP4"},{"TLE_LINE2":"2 47877  53.0533 161.9294 0001764  47.0649 313.0487 15.06398831 62305","OBJECT_NAME":"STARLINK-2333","COUNTRY_CODE":"US","PERIAPSIS":"545.996","CLASSIFICATION_TYPE":"U","MEAN_ELEMENT_THEORY":"SGP4","MEAN_MOTION_DDOT":"0.0000000000000","ELEMENT_SET_NO":"999","TIME_SYSTEM":"UTC","EPOCH":"2022-04-20T15:40:08.825088","TLE_LINE1":"1 47877U 21021T   22110.65287992  .00000855  00000-0  76290-4 0  9999","REF_FRAME":"TEME","APOAPSIS":"548.439","DECAY_DATE":null,"MEAN_MOTION":"15.06398831","CENTER_NAME":"EARTH","LAUNCH_DATE":"2021-03-14","OBJECT_TYPE":"PAYLOAD","NORAD_CAT_ID":"47877","FILE":"3409979","PERIOD":"95.592","EPHEMERIS_TYPE":"0","BSTAR":"0.00007629000000","ECCENTRICITY":"0.00017640","GP_ID":"201714255","SITE":"AFETR","MEAN_MOTION_DOT":"0.00000855","RCS_SIZE":"LARGE","SEMIMAJOR_AXIS":"6925.352","OBJECT_ID":"2021-021T","INCLINATION":"53.0533","MEAN_ANOMALY":"313.0487","RA_OF_ASC_NODE":"161.9294","ARG_OF_PERICENTER":"47.0649","REV_AT_EPOCH":"6230"},{"EPHEMERIS_TYPE":"0","PERIOD":"95.592","FILE":"3409979","NORAD_CAT_ID":"47878","ECCENTRICITY":"0.00020600","BSTAR":"0.00004652700000","OBJECT_ID":"2021-021U","SEMIMAJOR_AXIS":"6925.345","SITE":"AFETR","RCS_SIZE":"LARGE","MEAN_MOTION_DOT":"0.00000411","GP_ID":"201713003","ARG_OF_PERICENTER":"40.9477","REV_AT_EPOCH":"6213","INCLINATION":"53.0545","MEAN_ANOMALY":"319.1666","RA_OF_ASC_NODE":"160.9843","MEAN_ELEMENT_THEORY":"SGP4","CLASSIFICATION_TYPE":"U","COUNTRY_CODE":"US","PERIAPSIS":"545.784","OBJECT_NAME":"STARLINK-2335","TLE_LINE2":"2 47878  53.0545 160.9843 0002060  40.9477 319.1666 15.06401035 62137","ELEMENT_SET_NO":"999","EPOCH":"2022-04-20T20:42:40.948416","TIME_SYSTEM":"UTC","MEAN_MOTION_DDOT":"0.0000000000000","REF_FRAME":"TEME","APOAPSIS":"548.637","DECAY_DATE":null,"TLE_LINE1":"1 47878U 21021U   22110.86297394  .00000411  00000-0  46527-4 0  9998","OBJECT_TYPE":"PAYLOAD","CENTER_NAME":"EARTH","LAUNCH_DATE":"2021-03-14","MEAN_MOTION":"15.06401035"}];
